line1,line2,validFromUtcTime
1 00000U 00000E   26001.00000000  .00000000  00000-0  27772-4 0    01,2 00000  88.9606 165.3356 0010010 269.7275  97.6332 13.55313999    06,2026-01-01T00:00:00Z
1 00000U 00000E   26002.00000000  .00000000  00000-0  27772-4 0    02,2 00000  88.9606 165.2299 0010010 266.8168 296.7621 13.55314037    07,2026-01-02T00:00:00Z
